CIC_OEM_VERS = 2.0
CREATION_DATE = 2025-03-12T08:42:11.455120
ORIGINATOR = ISAE-SUPAERO


META_START
OBJECT_NAME = Sat
OBJECT_ID = Sat
CENTER_NAME = Earth
REF_FRAME = EME2000
TIME_SYSTEM = UTC
START_TIME = 2025-03-12T00:00:00.000
USEABLE_START_TIME = 2025-03-12T00:00:00.000
USEABLE_STOP_TIME = 2025-03-12T23:55:00.000
STOP_TIME = 2025-03-12T23:55:00.000
INTERPOLATION = lagrange
INTERPOLATION_DEGREE = 5
META_STOP



60746 0.0 4336.776900000001 -2038.1743000000001 4937.3234 -5.4705027 0.9740309 5.192457900000001
60746 420.0 1662.1203 -1428.0777 6517.001700000001 -7.0364043 1.8787936 2.1941657
60746 840.0 -1364.0123999999998 -515.9775999999999 6714.6683 -7.114084300000001 2.3864051 -1.2708032
60746 1260.0 -4100.8568 505.29196 5486.3082 -5.682991100000001 2.3891335 -4.4742237
60746 1680.0 -5966.365 1418.7312 3092.4552000000003 -3.0422598 1.8842479 -6.729464200000001
60746 2100.0 -6562.2255000000005 2030.5071 36.965193 0.25682559 0.9759458200000001 -7.5557110000000005
60746 2520.0 -5758.5628 2209.2405 -3026.4888 3.4997267 -0.13996462 -6.7668218
60746 2940.0 -3729.3221000000003 1917.8389 -5444.4802 5.9895573 -1.2231117999999999 -4.5368955
60746 3360.0 -907.98608 1219.1796000000002 -6703.549400000001 7.202360700000001 -2.0433715 -1.3519626
60746 3780.0 2105.6620000000003 262.52382 -6540.5343 6.8899428 -2.4300329 2.1136858000000003
60746 4200.0 4674.0794000000005 -749.61236 -4990.974200000001 5.1199925 -2.3028327 5.1325306
60746 4620.0 6252.9383 -1603.0009 -2382.1142999999997 2.2616256 -1.6873461 7.0664491
60746 5040.0 6504.272400000001 -2115.9802999999997 733.2821 -1.0828012000000002 -0.71251915 7.5007814
60746 5460.0 5374.9245 -2179.8496 3692.8772000000004 -4.1973871 0.41374219 6.3370395
60746 5880.0 3104.5496000000003 -1781.0008 5866.5168 -6.4180826 1.451001 3.8266305000000003
60746 6300.0 175.84448 -1004.5223000000001 6793.0087 -7.2762744 2.1797077 0.5055691600000001
60746 6720.0 -2790.0912000000003 -15.142422000000002 6275.7541 -6.5919512000000005 2.4465608000000003 -2.9247189
60746 7140.0 -5164.0668 977.6838700000001 4421.6349 -4.5049647 2.1940626 -5.7400097
60746 7560.0 -6438.6738 1762.1218999999999 1625.3028000000002 -1.4536548 1.4734467 -7.334446700000001
60746 7980.0 -6341.247 2171.0427999999997 -1518.3136000000002 1.9086979 0.43862011 -7.3627705
60746 8400.0 -4892.7026 2117.3486000000003 -4337.2955 4.8590124999999995 -0.68731509 -5.8225509
60746 8820.0 -2402.8665 1613.3210000000001 -6232.6938 6.772838 -1.6652325000000001 -3.0471013
60746 9240.0 595.02723 767.99539 -6805.3634 7.2453123999999995 -2.2873312 0.36811639
60746 9660.0 3467.1823 -239.78232 -5934.9214 6.1853593 -2.4251941 3.7019857000000003
60746 10080.0 5605.934700000001 -1196.8038999999999 -3805.8842999999997 3.8150116 -2.0498178 6.2537633999999995
60746 10500.0 6557.0877 -1900.2413999999999 -868.52698 0.63163548 -1.2391521 7.480506900000001
60746 10920.0 6117.3358 -2200.5361000000003 2253.2879 -2.6877631 -0.16513856000000002 7.1168197
60746 11340.0 4380.02 -2034.0856 4896.0928 -5.4351473 0.9431982900000001 5.2405086
60746 11760.0 1714.5934 -1436.621 6498.7938 -7.028213399999999 1.8504242 2.2537537000000003
60746 12180.0 -1313.8685 -534.98779 6721.8405999999995 -7.1328911 2.3656849 -1.2113943
60746 12600.0 -4063.7067 479.92557 5516.5914 -5.7243506 2.3799083999999997 -4.4253365
60746 13020.0 -5956.1682 1394.0318 3140.7064 -3.0946471 1.8867119 -6.6946626
60746 13440.0 -6576.8246 2010.099 94.924745 0.1930606 0.99372168 -7.5457725
60746 13860.0 -5796.2378 2197.7447 -2969.9458 3.440112 -0.10984903 -6.7938814
60746 14280.0 -3783.1001 1917.9474 -5400.7842 5.9603931 -1.191605 -4.5929358
60746 14700.0 -966.8449 1231.4578999999999 -6685.332 7.2063858000000005 -2.0175693000000003 -1.4149459
60746 15120.0 2054.6097 283.61693 -6547.2739 6.9216386000000005 -2.4143865 2.0600500000000004
60746 15540.0 4640.1753 -724.39675 -5016.4785999999995 5.1678772 -2.2989231 5.0977518
60746 15960.0 6240.4924 -1578.5759 -2417.7951000000003 2.3144357 -1.6949311 7.0527949
60746 16380.0 6514.8535 -2097.3274 696.07653 -1.0315043000000002 -0.73058791 7.5057678
60746 16800.0 5406.0912 -2170.7502000000004 3661.6197 -4.1540029999999994 0.38747345 6.3608471
60746 17220.0 3151.1473 -1784.0229 5849.4292000000005 -6.3890979 1.4203585 3.870185
60746 17640.0 230.03079000000002 -1020.2035000000001 6797.6777 -7.2706095 2.1513328 0.56428133
60746 18060.0 -2739.6425 -40.95167300000001 6306.3819 -6.616002900000001 2.4279132 -2.8625036
60746 18480.0 -5129.4645 946.81322 4477.5495 -4.5578577 2.1908278 -5.6903117000000005
60746 18900.0 -6430.6458 1733.3210000000001 1698.0294 -1.5290839 1.4886297 -7.3128253999999995
60746 19320.0 -6365.228700000001 2151.6356 -1444.4854 1.8353731 0.46710638 -7.3795612
60746 19740.0 -4944.7347 2111.9306 -4278.9746 4.8063632 -0.65292196 -5.8716167
60746 20160.0 -2471.8781000000004 1622.8148 -6200.7687000000005 6.7515609 -1.6321296 -3.1176483
60746 20580.0 524.90467 789.70399 -6804.5126 7.2610311 -2.2632775 0.29388183
60746 21000.0 3410.5206000000003 -210.72426000000002 -5962.8391 6.2320096000000005 -2.4147176 3.6417414
60746 21420.0 5573.157 -1166.4598999999998 -3853.9802000000004 3.8796693 -2.0541164 6.2192236
60746 21840.0 6552.6897 -1874.5607 -924.94038 0.69988567 -1.2566547000000001 7.475762700000001
60746 22260.0 6137.088900000001 -2183.3831 2200.4064 -2.6297622 -0.19236276000000002 7.143641400000001
60746 22680.0 4413.7817000000005 -2027.1836 4857.1774000000005 -5.4034912 0.91336896 5.2913299
60746 23100.0 1750.5426000000002 -1439.1384 6475.5562 -7.0313191 1.8259275000000001 2.3098392
60746 23520.0 -1283.0931 -546.5531800000001 6719.5824 -7.1544943000000005 2.3477819 -1.1675337
60746 23940.0 -4044.4522 462.40938 5530.7868 -5.756808200000001 2.3698325000000002 -4.3905718
60746 24360.0 -5946.1272 1373.0674 3163.2477000000003 -3.1347956 1.8881130000000002 -6.6788029
60746 24780.0 -6583.808 1991.8478 121.37034 0.15265933 1.0052554 -7.5431763
60746 25200.0 -5823.4163 2187.6693999999998 -2946.4731 3.4011720999999997 -0.088981399 -6.8018527
60746 25620.0 -3829.5137000000004 1920.1915000000001 -5389.1353 5.9203866 -1.1609335 -4.6210422
60746 26040.0 -1027.1577 1247.3922 -6691.3503 7.1841162999999995 -1.9850707 -1.4693893
60746 26460.0 1991.6705 311.7516 -6579.9046 6.933249 -2.3904817 1.9911391
60746 26880.0 4590.1819000000005 -689.5647700000001 -5076.9885 5.2169963 -2.2918724000000004 5.0384375
60746 27300.0 6216.9337000000005 -1544.8737 -2496.5818 2.3864058 -1.7065472 7.026899
60746 27720.0 6521.9049 -2071.6239 615.21027 -0.96228444 -0.75585216 7.522340600000001
60746 28140.0 5436.8463 -2156.8552000000004 3595.4022999999997 -4.1111133 0.35747445 6.4104157
60746 28560.0 3192.5067999999997 -1782.24 5807.0114 -6.3816529 1.3938105 3.929663
60746 28980.0 267.62403000000006 -1027.7471 6777.4267 -7.2924961 2.1328193 0.6119842200000001
60746 29400.0 -2712.8785000000003 -54.964733 6301.5792 -6.6490904 2.4175659 -2.8383159
60746 29820.0 -5116.728700000001 929.9492 4479.4052 -4.5895995 2.1873753000000002 -5.6818064999999995
60746 30240.0 -6429.6826 1716.5795 1699.7401000000002 -1.5488723 1.4904214999999998 -7.3136701
60746 30660.0 -6371.5306 2137.183 -1443.5043 1.8196213 0.47642111 -7.381564099999999
60746 31080.0 -4957.437400000001 2102.9998 -4278.86 4.7905612 -0.6354185099999999 -5.8773249
60746 31500.0 -2492.0276000000003 1622.9951 -6205.4018 6.7357543 -1.6081582 -3.1331622
60746 31920.0 499.63496000000004 800.36009 -6818.6754 7.254330100000001 -2.2385970000000004 0.26411532
60746 32340.0 3386.1311 -190.89818 -5991.6578 6.2441372 -2.3970197 3.6037369
60746 32760.0 5558.4802 -1141.8292 -3897.9939 3.9130949999999998 -2.0496113 6.1877346
60746 33180.0 6555.0232000000005 -1851.1865 -977.84197 0.74486524 -1.2667647 7.4660957
60746 33600.0 6160.6862 -2167.6978 2149.8853 -2.5897181999999996 -0.21284434 7.1576047
60746 34020.0 4456.8827 -2023.4604 4819.3072 -5.3768541999999995 0.88731788 5.3229073
60746 34440.0 1805.4233000000002 -1449.0089 6461.2712 -7.0203798 1.7985914 2.3539669
60746 34860.0 -1229.8169 -566.5495500000001 6725.8933 -7.1713700000000005 2.3275478 -1.1170813000000002
60746 35280.0 -4004.8016000000002 436.09469 5561.1685 -5.7912965000000005 2.3599261 -4.3510393
60746 35700.0 -5924.4340999999995 1345.3771000000002 3207.0925 -3.1826499 1.8917378000000002 -6.6599324
60746 36120.0 -6582.2807999999995 1968.1865 167.70688 0.10705267 1.0201723 -7.5501119
60746 36540.0 -5838.2068 2171.8448 -2907.7241000000004 3.3712644000000003 -0.06781461400000001 -6.828067600000001
60746 36960.0 -3850.7188 1913.1949 -5363.8177000000005 5.9148968 -1.1400988 -4.651164
60746 37380.0 -1047.0002 1248.7957 -6678.2002 7.1949285000000005 -1.966364 -1.4957143000000002
60746 37800.0 1978.3451000000002 320.19611 -6576.017 6.9519497 -2.3758725 1.9734681
60746 38220.0 4585.0656 -676.0865600000001 -5078.9301 5.236714 -2.2827773000000002 5.0275585000000005
60746 38640.0 6219.6636 -1528.9408 -2502.6 2.4059506 -1.7050306000000002 7.019260900000001
60746 39060.0 6536.7244 -2057.9648 605.6685500000001 -0.9388491299999999 -0.7640185300000001 7.5142634
60746 39480.0 5461.8428 -2148.7727999999997 3584.6001 -4.0836901 0.33842829 6.4136826000000005
60746 39900.0 3228.6095 -1783.8627 5801.1052 -6.3580659 1.3675525 3.9507396
60746 40320.0 311.31001000000003 -1041.0593000000001 6785.482400000001 -7.2831723 2.1057379999999997 0.6523470200000001
60746 40740.0 -2671.8572999999997 -77.86957600000001 6329.3946 -6.6659616 2.3981882 -2.7856216
60746 41160.0 -5087.7394 901.62272 4527.4515 -4.632492500000001 2.1823960000000002 -5.6394033
60746 41580.0 -6427.975 1690.2672 1767.3043 -1.6091407 1.5007182000000001 -7.2881597000000005
60746 42000.0 -6400.0969000000005 2119.4438999999998 -1372.0316 1.7504117000000001 0.50264653 -7.3893053
60746 42420.0 -5008.3393 2097.0814 -4218.9501 4.741244399999999 -0.60214705 -5.923557799999999
60746 42840.0 -2557.0553999999997 1630.9286000000002 -6169.756 6.7200863 -1.5771763 -3.1989565
60746 43260.0 435.65424 819.5394100000001 -6811.1637 7.2740542999999995 -2.2168716 0.1993499
